[{"OBJECT_NAME":"ONEWEB-0290","OBJECT_ID":"2021-075F","EPOCH":"2026-03-09T22:19:04.093536","MEAN_MOTION":13.17650403,"ECCENTRICITY":0.00023815,"INCLINATION":87.9158,"RA_OF_ASC_NODE":25.5567,"ARG_OF_PERICENTER":88.4079,"MEAN_ANOMALY":271.7325,"EPHEMERIS_TYPE":0,"CLASSIFICATION_TYPE":"U","NORAD_CAT_ID":49080,"ELEMENT_SET_NO":999,"REV_AT_EPOCH":22054,"BSTAR":0.00022685575,"MEAN_MOTION_DOT":1.01e-6,"MEAN_MOTION_DDOT":0},{"OBJECT_NAME":"COSMOS 2499 DEB","OBJECT_ID":"2014-028F","EPOCH":"2026-03-04T23:28:36.900768","MEAN_MOTION":12.96328916,"ECCENTRICITY":0.0226707,"INCLINATION":82.5071,"RA_OF_ASC_NODE":313.2218,"ARG_OF_PERICENTER":166.0345,"MEAN_ANOMALY":194.7179,"EPHEMERIS_TYPE":0,"CLASSIFICATION_TYPE":"U","NORAD_CAT_ID":49924,"ELEMENT_SET_NO":999,"REV_AT_EPOCH":20478,"BSTAR":0.0088421094,"MEAN_MOTION_DOT":2.853e-5,"MEAN_MOTION_DDOT":0}]
